     2.100          NAVIGATION                              RINEX VERSION / TYPE
fic2rin                                 05/04/2017 00:38:12 PGM / RUN BY / DATE
                                                            END OF HEADER
23 17  5  3 18  0  0.0 -.211062841117D-03 -.795807864051D-12  .000000000000D+00
     .470000000000D+02  .405000000000D+02  .514128558375D-08 -.741123575320D+00
     .235252082348D-05  .116181471385D-01  .648573040962D-05  .515375009346D+04
     .324000000000D+06  .152736902237D-06  .646004011289D-01  .180676579475D-06
     .944860246822D+00  .243843750000D+03 -.247175121875D+01 -.845535219936D-08
     .251081887140D-09  .100000000000D+01  .194700000000D+04  .000000000000D+00
     .240000000000D+01  .000000000000D+00 -.204890966415D-07  .470000000000D+02
     .316806000000D+06  .400000000000D+01
25 17  5  3 18  0  0.0 -.380872748792D-03 -.659383658785D-11  .000000000000D+00
     .112000000000D+03  .566875000000D+02  .401909598291D-08  .295920733143D+01
     .275298953056D-05  .648949528113D-02  .889413058758D-05  .515360511971D+04
     .324000000000D+06 -.391155481339D-07  .217014425689D+01 -.894069671631D-07
     .977175421084D+00  .214468750000D+03  .800955908034D+00 -.778246702813D-08
    -.339299847486D-10  .100000000000D+01  .194700000000D+04  .000000000000D+00
     .340000000000D+01  .000000000000D+00  .558793544769D-08  .112000000000D+03
     .316806000000D+06  .400000000000D+01
26 17  5  3 18  0  0.0 -.508119352162D-03  .363797880709D-11  .000000000000D+00
     .770000000000D+02  .482812500000D+02  .457840499466D-08  .235854968590D+01
     .255927443504D-05  .182380771730D-02  .941194593906D-05  .515370093918D+04
     .324000000000D+06 -.502914190292D-07  .215514032476D+01  .558793544769D-07
     .958953372006D+00  .198000000000D+03  .817166640785D-01 -.809498004555D-08
    -.964325882329D-11  .100000000000D+01  .194700000000D+04  .000000000000D+00
     .240000000000D+01  .000000000000D+00  .745058059692D-08  .770000000000D+02
     .316806000000D+06  .400000000000D+01
27 17  5  3 18  0  0.0  .251346267760D-03  .659383658785D-11  .000000000000D+00
     .740000000000D+02  .173125000000D+02  .444911389488D-08  .633937709364D+00
     .100396573544D-05  .476385001093D-02  .439770519733D-05  .515366191101D+04
     .324000000000D+06 -.279396772385D-07 -.307349702225D+01  .260770320892D-07
     .974934856716D+00  .296531250000D+03  .329916515741D+00 -.828605943335D-08
     .171435712414D-10  .100000000000D+01  .194700000000D+04  .000000000000D+00
     .240000000000D+01  .000000000000D+00  .139698386192D-08  .740000000000D+02
     .316806000000D+06  .400000000000D+01
28 17  5  3 18  0  0.0  .609902199358D-03  .306954461848D-11  .000000000000D+00
     .340000000000D+02  .331562500000D+02  .389409077594D-08  .145056386629D+01
     .138767063618D-05  .197390681133D-01  .849366188049D-05  .515365184021D+04
     .324000000000D+06 -.113621354103D-06  .224859531769D+01 -.523403286934D-06
     .988538527546D+00  .232718750000D+03 -.157075704159D+01 -.782532595624D-08
     .225009372544D-10  .100000000000D+01  .194700000000D+04  .000000000000D+00
     .240000000000D+01  .000000000000D+00 -.111758708954D-07  .340000000000D+02
     .316806000000D+06  .400000000000D+01
29 17  5  3 18  0  0.0  .607446301728D-03 -.318323145621D-11  .000000000000D+00
     .350000000000D+02 -.187500000000D+00  .420481800469D-08  .244529492314D+01
    -.141561031342D-06  .712314154953D-03  .474415719509D-05  .515363778305D+04
     .324000000000D+06 -.484287738800D-07 -.301157244166D+01 -.316649675369D-07
     .981138814336D+00  .299156250000D+03  .216547426104D+00 -.810712340852D-08
     .264296723305D-10  .100000000000D+01  .194700000000D+04  .000000000000D+00
     .240000000000D+01  .000000000000D+00 -.977888703346D-08  .350000000000D+02
     .316806000000D+06  .400000000000D+01
30 17  5  3 18  0  0.0  .157717615366D-03 -.795807864051D-12  .000000000000D+00
     .830000000000D+02  .375000000000D+00  .500770859116D-08 -.216506645946D+01
    -.651925802231D-07  .273744226433D-02  .781193375587D-05  .515368425751D+04
     .324000000000D+06 -.614672899246D-07  .118025900938D+01 -.596046447754D-07
     .948225299264D+00  .227531250000D+03  .306603832419D+01 -.828963101069D-08
    -.239295681911D-09  .100000000000D+01  .194700000000D+04  .000000000000D+00
     .340000000000D+01  .000000000000D+00  .372529029846D-08  .830000000000D+02
     .316806000000D+06  .400000000000D+01
31 17  5  3 18  0  0.0  .203384552151D-03 -.238742359215D-11  .000000000000D+00
     .350000000000D+02  .334375000000D+01  .460412035152D-08 -.241090701193D+01
     .197440385818D-06  .842322118115D-02  .795908272266D-05  .515369276619D+04
     .324000000000D+06 -.195577740669D-06  .115182800843D+01 -.465661287308D-07
     .967250870727D+00  .232625000000D+03 -.257366910353D+00 -.800140471919D-08
    -.332513850537D-09  .100000000000D+01  .194700000000D+04  .000000000000D+00
     .240000000000D+01  .000000000000D+00 -.135041773319D-07  .350000000000D+02
     .316806000000D+06  .400000000000D+01
32 17  5  3 18  0  0.0 -.403333455324D-03 -.109139364213D-10  .000000000000D+00
     .280000000000D+02  .381250000000D+02  .483448709008D-08  .130184463693D+01
     .182352960110D-05  .111615145579D-02  .687129795551D-05  .515371679115D+04
     .324000000000D+06 -.372529029846D-08  .656255102516D-01  .186264514923D-07
     .958488888201D+00  .242687500000D+03 -.263751894577D+01 -.820427031222D-08
     .209294432239D-09  .100000000000D+01  .194700000000D+04  .000000000000D+00
     .240000000000D+01  .000000000000D+00  .465661287308D-09  .280000000000D+02
     .316806000000D+06  .400000000000D+01
25 17  5  3 17 59 44.0 -.380873214453D-03 -.659383658785D-11  .000000000000D+00
     .120000000000D+02  .566875000000D+02  .401909598291D-08  .295687407073D+01
     .275298953056D-05  .648949050810D-02  .889413058758D-05  .515360511780D+04
     .323984000000D+06 -.391155481339D-07  .217014440903D+01 -.894069671631D-07
     .977175429862D+00  .214468750000D+03  .800955300923D+00 -.778246702813D-08
    -.339299847486D-10  .100000000000D+01  .194700000000D+04  .000000000000D+00
     .240000000000D+01  .000000000000D+00  .558793544769D-08  .120000000000D+02
     .317016000000D+06  .400000000000D+01
30 17  5  3 17 59 44.0  .157716684043D-03 -.795807864051D-12  .000000000000D+00
     .700000000000D+01  .375000000000D+00  .500770859116D-08 -.216740130890D+01
    -.651925802231D-07  .273743784055D-02  .781193375587D-05  .515368425560D+04
     .323984000000D+06 -.614672899246D-07  .118025914543D+01 -.596046447754D-07
     .948225299264D+00  .227531250000D+03  .306603943893D+01 -.828963101069D-08
    -.239295681911D-09  .100000000000D+01  .194700000000D+04  .000000000000D+00
     .240000000000D+01  .000000000000D+00  .372529029846D-08  .700000000000D+01
     .320136000000D+06  .400000000000D+01
26 17  5  3 17 59 44.0 -.508121214807D-03  .363797880709D-11  .000000000000D+00
     .180000000000D+02  .482812500000D+02  .457840499466D-08  .235621883169D+01
     .255927443504D-05  .182380608749D-02  .941194593906D-05  .515370094299D+04
     .323984000000D+06 -.502914190292D-07  .215514048275D+01  .558793544769D-07
     .958953382246D+00  .198000000000D+03  .817138172399D-01 -.809498004555D-08
    -.964325882329D-11  .100000000000D+01  .194700000000D+04  .000000000000D+00
     .240000000000D+01  .000000000000D+00  .745058059692D-08  .180000000000D+02
     .323136000000D+06  .400000000000D+01
26 17  5  3 19 59 44.0 -.508094672114D-03  .363797880709D-11  .000000000000D+00
     .190000000000D+02  .511250000000D+02  .452983154281D-08 -.287673644239D+01
     .262074172497D-05  .182279944420D-02  .902079045773D-05  .515370270729D+04
     .331184000000D+06 -.428408384323D-07  .215508228348D+01 -.372529029846D-08
     .958953538778D+00  .206375000000D+03  .816483267863D-01 -.805962142987D-08
     .678599694973D-11  .100000000000D+01  .194700000000D+04  .000000000000D+00
     .240000000000D+01  .000000000000D+00  .745058059692D-08  .190000000000D+02
     .324006000000D+06  .400000000000D+01
30 17  5  3 19 59 44.0  .157710630447D-03 -.795807864051D-12  .000000000000D+00
     .720000000000D+02 -.568750000000D+01  .495520640424D-08 -.111763456293D+01
    -.489875674248D-06  .273778045084D-02  .709295272827D-05  .515368207359D+04
     .331184000000D+06  .000000000000D+00  .118019923894D+01 -.577419996262D-07
     .948223692980D+00  .234093750000D+03  .306645156636D+01 -.830927468607D-08
    -.217509060125D-09  .100000000000D+01  .194700000000D+04  .000000000000D+00
     .240000000000D+01  .000000000000D+00  .372529029846D-08  .720000000000D+02
     .324006000000D+06  .400000000000D+01
 1 17  5  3 20  0  0.0  .541810877621D-04  .568434188608D-12  .000000000000D+00
     .520000000000D+02 -.839375000000D+02  .450054460860D-08 -.502256419784D+00
    -.447221100330D-05  .657000683714D-02  .652112066746D-05  .515368759155D+04
     .331200000000D+06  .113621354103D-06 -.201637179396D+01  .124797224998D-06
     .967006623387D+00  .255562500000D+03  .538399673227D+00 -.825070081766D-08
    -.303584074067D-09  .100000000000D+01  .194700000000D+04  .000000000000D+00
     .240000000000D+01  .000000000000D+00  .558793544769D-08  .520000000000D+02
     .324006000000D+06  .400000000000D+01
 2 17  5  3 20  0  0.0  .427013728768D-03 -.761701812735D-11  .000000000000D+00
     .950000000000D+02 -.615000000000D+02  .504485299552D-08 -.177070764600D+00
    -.317394733429D-05  .167886562413D-01  .645220279694D-05  .515377973366D+04
     .331200000000D+06 -.117346644402D-06 -.206925650635D+01  .225380063057D-06
     .945950679626D+00  .250843750000D+03 -.198344825204D+01 -.869036198846D-08
    -.145363197818D-09  .100000000000D+01  .194700000000D+04  .000000000000D+00
     .240000000000D+01  .000000000000D+00 -.204890966415D-07  .950000000000D+02
     .324006000000D+06  .400000000000D+01
